OBJECT_NAME,OBJECT_ID,EPOCH,MEAN_MOTION,ECCENTRICITY,INCLINATION,RA_OF_ASC_NODE,ARG_OF_PERICENTER,MEAN_ANOMALY,EPHEMERIS_TYPE,CLASSIFICATION_TYPE,NORAD_CAT_ID,ELEMENT_SET_NO,REV_AT_EPOCH,BSTAR,MEAN_MOTION_DOT,MEAN_MOTION_DDOT
ONEWEB-0395,2021-132G,2026-06-25T13:25:57.652320,13.11414736,.00020518,87.8881,19.4000,87.7531,272.3831,0,U,50475,999,21681,.13196565E-2,.48E-5,0
ONEWEB-0396,2021-132H,2026-06-25T10:30:24.514272,13.18685700,.00018558,87.9178,333.8132,88.8268,271.3076,0,U,50476,999,22272,.45875066E-4,.31E-6,0
ONEWEB-0397,2021-132J,2026-06-25T10:52:15.722400,13.18685710,.00017348,87.9175,333.8099,86.8934,273.2397,0,U,50477,999,22270,.17562174E-3,.82E-6,0
ONEWEB-0398,2021-132K,2026-06-25T12:39:33.380352,13.11417769,.00020462,87.8890,19.3980,93.0287,267.1075,0,U,50478,999,21670,-.76051505E-3,-.257E-5,0
ONEWEB-0399,2021-132L,2026-06-25T12:20:01.369536,13.11416868,.00020031,87.8891,19.4117,73.4997,286.6351,0,U,50479,999,21669,-.12916822E-2,-.445E-5,0
ONEWEB-0400,2021-132M,2026-06-25T10:20:41.956224,13.18686062,.00020039,87.9178,333.8044,98.0772,262.0588,0,U,50480,999,22269,.7000044E-4,.41E-6,0
ONEWEB-0401,2021-132N,2026-06-25T11:26:15.396576,13.18685124,.00015932,87.9180,333.7928,93.6786,266.4528,0,U,50481,999,22270,.35362295E-4,.27E-6,0
ONEWEB-0402,2021-132P,2026-06-25T10:32:50.585568,13.18686137,.00013734,87.9175,333.7891,88.7186,271.4104,0,U,50482,999,22272,.12163971E-3,.61E-6,0
ONEWEB-0403,2021-132Q,2026-06-25T11:09:15.584544,13.18685753,.00019381,87.9176,333.8084,90.7188,269.4167,0,U,50483,999,22268,.20805234E-3,.95E-6,0
ONEWEB-0404,2021-132R,2026-06-25T13:43:02.028000,13.11415916,.00020716,87.8883,19.3979,81.2012,278.9351,0,U,50484,999,21679,.83134762E-4,.42E-6,0
ONEWEB-0405,2021-132S,2026-06-25T04:11:34.550880,13.18728077,.00011023,87.9195,333.8507,116.9615,243.1629,0,U,50485,999,22304,-.25309171E-1,-.996E-4,0
ONEWEB-0406,2021-132T,2026-06-25T11:16:32.549952,13.18685988,.00022128,87.9174,333.8082,82.7955,277.3428,0,U,50486,999,22271,.20327489E-3,.93E-6,0
ONEWEB-0407,2021-132U,2026-06-25T11:06:50.514624,13.18687223,.00017173,87.9178,333.8018,100.2475,259.8851,0,U,50487,999,22265,.15761094E-3,.75E-6,0
ONEWEB-0409,2021-132V,2026-06-25T13:40:35.693184,13.11413951,.00020871,87.8888,19.3866,84.5151,275.6215,0,U,50488,999,21668,.19386138E-3,.81E-6,0
ONEWEB-0412,2021-132W,2026-06-25T10:49:49.880928,13.18685858,.00015558,87.9173,333.8122,91.2425,268.8886,0,U,50489,999,22274,.13599876E-3,.67E-6,0
ONEWEB-0413,2021-132X,2026-06-25T10:57:07.994592,13.18687092,.0001562,87.9166,333.8094,97.2623,262.8686,0,U,50490,999,22268,.20588252E-3,.94E-6,0
ONEWEB-0414,2021-132Y,2026-06-25T10:35:16.096128,13.18685750,.00017173,87.9177,333.7950,89.7203,270.4125,0,U,50491,999,22271,.1469462E-3,.71E-6,0
ONEWEB-0417,2021-132Z,2026-06-25T10:47:24.977760,13.18661948,.00019274,87.9168,333.8123,92.5698,267.5655,0,U,50492,999,22269,.12741678E-1,.5037E-4,0
ONEWEB-0418,2021-132AA,2026-06-25T11:01:45.670368,13.18686131,.00020745,87.9175,333.8108,89.6314,270.5056,0,U,50493,999,22275,.22023309E-3,.1E-5,0
ONEWEB-0419,2021-132AB,2026-06-25T11:28:44.129856,13.18665808,.00021559,87.9179,333.8069,95.6124,264.5254,0,U,50494,999,22267,-.69056968E-4,-.14E-6,0
ONEWEB-0420,2021-132AC,2026-06-25T10:37:41.187648,13.18684974,.00015101,87.9178,333.8169,94.8530,265.2774,0,U,50495,999,22266,-.24241119E-3,-.83E-6,0
ONEWEB-0421,2021-132AD,2026-06-25T10:27:59.094432,13.18685217,.00016134,87.9169,333.8152,84.0486,276.0830,0,U,50496,999,22270,.10204232E-4,.17E-6,0
ONEWEB-0424,2021-132AE,2026-06-25T11:21:24.139584,13.18685861,.00022062,87.9175,333.8063,98.5837,261.5545,0,U,50497,999,22273,-.13905819E-4,.7E-7,0
ONEWEB-0426,2021-132AF,2026-06-25T10:21:54.116640,13.18684593,.00019625,87.9175,333.8054,73.7567,286.3781,0,U,50498,999,22267,.3070038E-3,.134E-5,0
ONEWEB-0427,2021-132AG,2026-06-25T11:18:58.544352,13.18685403,.00019834,87.9179,333.7866,89.3075,270.8285,0,U,50499,999,22270,.13146264E-4,.18E-6,0
ONEWEB-0429,2021-132AH,2026-06-25T10:59:32.597088,13.18686551,.00017591,87.9170,333.8130,97.3804,262.7528,0,U,50500,999,22267,.17293353E-3,.81E-6,0
ONEWEB-0430,2021-132AJ,2026-06-25T10:42:32.938848,13.18680255,.00019819,87.9174,333.8138,101.8568,258.2786,0,U,50501,999,22271,-.20556377E-2,-.797E-5,0
ONEWEB-0432,2021-132AK,2026-06-25T11:58:46.559136,13.17154765,.00023398,87.9176,333.7860,104.9157,255.2234,0,U,50502,999,22267,.55878779E-4,.34E-6,0
ONEWEB-0440,2021-132AL,2026-06-25T11:11:41.024256,13.18685988,.00015006,87.9179,333.8064,92.9127,267.2177,0,U,50503,999,22266,.22040865E-3,.1E-5,0
ONEWEB-0450,2021-132AM,2026-06-25T11:02:10.548384,13.18685401,.00016039,87.9164,333.8118,102.1117,258.0195,0,U,50504,999,22269,.20947379E-3,.95E-6,0
