[
  {
    "name": "ONEWEB-0395",
    "noradId": "50475",
    "line1": "1 50475U 21132G   26176.55969505  .00000480  00000+0  13197-2 0  9990",
    "line2": "2 50475  87.8881  19.4000 0002051  87.7531 272.3831 13.11414736216811"
  },
  {
    "name": "ONEWEB-0396",
    "noradId": "50476",
    "line1": "1 50476U 21132H   26176.43778373  .00000031  00000+0  45875-4 0  9991",
    "line2": "2 50476  87.9178 333.8132 0001855  88.8268 271.3076 13.18685700222726"
  },
  {
    "name": "ONEWEB-0397",
    "noradId": "50477",
    "line1": "1 50477U 21132J   26176.45295975  .00000082  00000+0  17562-3 0  9993",
    "line2": "2 50477  87.9175 333.8099 0001734  86.8934 273.2397 13.18685710222706"
  },
  {
    "name": "ONEWEB-0398",
    "noradId": "50478",
    "line1": "1 50478U 21132K   26176.52746968 -.00000257  00000+0 -76052-3 0  9990",
    "line2": "2 50478  87.8890  19.3980 0002046  93.0287 267.1075 13.11417769216701"
  },
  {
    "name": "ONEWEB-0399",
    "noradId": "50479",
    "line1": "1 50479U 21132L   26176.51390474 -.00000445  00000+0 -12917-2 0  9995",
    "line2": "2 50479  87.8891  19.4117 0002003  73.4997 286.6351 13.11416868216699"
  },
  {
    "name": "ONEWEB-0400",
    "noradId": "50480",
    "line1": "1 50480U 21132M   26176.43104116  .00000041  00000+0  70000-4 0  9993",
    "line2": "2 50480  87.9178 333.8044 0002003  98.0772 262.0588 13.18686062222695"
  },
  {
    "name": "ONEWEB-0401",
    "noradId": "50481",
    "line1": "1 50481U 21132N   26176.47656709  .00000027  00000+0  35362-4 0  9994",
    "line2": "2 50481  87.9180 333.7928 0001593  93.6786 266.4528 13.18685124222700"
  },
  {
    "name": "ONEWEB-0402",
    "noradId": "50482",
    "line1": "1 50482U 21132P   26176.43947437  .00000061  00000+0  12164-3 0  9994",
    "line2": "2 50482  87.9175 333.7891 0001373  88.7186 271.4104 13.18686137222722"
  },
  {
    "name": "ONEWEB-0403",
    "noradId": "50483",
    "line1": "1 50483U 21132Q   26176.46476371  .00000095  00000+0  20805-3 0  9990",
    "line2": "2 50483  87.9176 333.8084 0001938  90.7188 269.4167 13.18685753222685"
  },
  {
    "name": "ONEWEB-0404",
    "noradId": "50484",
    "line1": "1 50484U 21132R   26176.57155125  .00000042  00000+0  83135-4 0  9992",
    "line2": "2 50484  87.8883  19.3979 0002071  81.2012 278.9351 13.11415916216799"
  },
  {
    "name": "ONEWEB-0405",
    "noradId": "50485",
    "line1": "1 50485U 21132S   26176.17470545 -.00009960  00000+0 -25309-1 0  9991",
    "line2": "2 50485  87.9195 333.8507 0001102 116.9615 243.1629 13.18728077223047"
  },
  {
    "name": "ONEWEB-0406",
    "noradId": "50486",
    "line1": "1 50486U 21132T   26176.46982118  .00000093  00000+0  20327-3 0  9991",
    "line2": "2 50486  87.9174 333.8082 0002212  82.7955 277.3428 13.18685988222715"
  },
  {
    "name": "ONEWEB-0407",
    "noradId": "50487",
    "line1": "1 50487U 21132U   26176.46308466  .00000075  00000+0  15761-3 0  9996",
    "line2": "2 50487  87.9178 333.8018 0001717 100.2475 259.8851 13.18687223222653"
  },
  {
    "name": "ONEWEB-0409",
    "noradId": "50488",
    "line1": "1 50488U 21132V   26176.56985756  .00000081  00000+0  19386-3 0  9995",
    "line2": "2 50488  87.8888  19.3866 0002087  84.5151 275.6215 13.11413951216688"
  },
  {
    "name": "ONEWEB-0412",
    "noradId": "50489",
    "line1": "1 50489U 21132W   26176.45127177  .00000067  00000+0  13600-3 0  9996",
    "line2": "2 50489  87.9173 333.8122 0001555  91.2425 268.8886 13.18685858222740"
  },
  {
    "name": "ONEWEB-0413",
    "noradId": "50490",
    "line1": "1 50490U 21132X   26176.45634253  .00000094  00000+0  20588-3 0  9999",
    "line2": "2 50490  87.9166 333.8094 0001562  97.2623 262.8686 13.18687092222683"
  },
  {
    "name": "ONEWEB-0414",
    "noradId": "50491",
    "line1": "1 50491U 21132Y   26176.44115852  .00000071  00000+0  14695-3 0  9995",
    "line2": "2 50491  87.9177 333.7950 0001717  89.7203 270.4125 13.18685750222714"
  },
  {
    "name": "ONEWEB-0417",
    "noradId": "50492",
    "line1": "1 50492U 21132Z   26176.44959465  .00005037  00000+0  12742-1 0  9998",
    "line2": "2 50492  87.9168 333.8123 0001927  92.5698 267.5655 13.18661948222696"
  },
  {
    "name": "ONEWEB-0418",
    "noradId": "50493",
    "line1": "1 50493U 21132AA  26176.45955637  .00000100  00000+0  22023-3 0  9998",
    "line2": "2 50493  87.9175 333.8108 0002074  89.6314 270.5056 13.18686131222751"
  },
  {
    "name": "ONEWEB-0419",
    "noradId": "50494",
    "line1": "1 50494U 21132AB  26176.47828854 -.00000014  00000+0 -69057-4 0  9996",
    "line2": "2 50494  87.9179 333.8069 0002155  95.6124 264.5254 13.18665808222670"
  },
  {
    "name": "ONEWEB-0420",
    "noradId": "50495",
    "line1": "1 50495U 21132AC  26176.44283782 -.00000083  00000+0 -24241-3 0  9990",
    "line2": "2 50495  87.9178 333.8169 0001510  94.8530 265.2774 13.18684974222666"
  },
  {
    "name": "ONEWEB-0421",
    "noradId": "50496",
    "line1": "1 50496U 21132AD  26176.43610063  .00000017  00000+0  10204-4 0  9996",
    "line2": "2 50496  87.9169 333.8152 0001613  84.0486 276.0830 13.18685217222703"
  },
  {
    "name": "ONEWEB-0424",
    "noradId": "50497",
    "line1": "1 50497U 21132AE  26176.47319606  .00000007  00000+0 -13906-4 0  9992",
    "line2": "2 50497  87.9175 333.8063 0002206  98.5837 261.5545 13.18685861222731"
  },
  {
    "name": "ONEWEB-0426",
    "noradId": "50498",
    "line1": "1 50498U 21132AF  26176.43187635  .00000134  00000+0  30700-3 0  9994",
    "line2": "2 50498  87.9175 333.8054 0001962  73.7567 286.3781 13.18684593222676"
  },
  {
    "name": "ONEWEB-0427",
    "noradId": "50499",
    "line1": "1 50499U 21132AG  26176.47151093  .00000018  00000+0  13146-4 0  9995",
    "line2": "2 50499  87.9179 333.7866 0001983  89.3075 270.8285 13.18685403222703"
  },
  {
    "name": "ONEWEB-0429",
    "noradId": "50500",
    "line1": "1 50500U 21132AH  26176.45801617  .00000081  00000+0  17293-3 0  9996",
    "line2": "2 50500  87.9170 333.8130 0001759  97.3804 262.7528 13.18686551222673"
  },
  {
    "name": "ONEWEB-0430",
    "noradId": "50501",
    "line1": "1 50501U 21132AJ  26176.44621457 -.00000797  00000+0 -20556-2 0  9999",
    "line2": "2 50501  87.9174 333.8138 0001981 101.8568 258.2786 13.18680255222717"
  },
  {
    "name": "ONEWEB-0432",
    "noradId": "50502",
    "line1": "1 50502U 21132AK  26176.49914999  .00000034  00000+0  55879-4 0  9991",
    "line2": "2 50502  87.9176 333.7860 0002339 104.9157 255.2234 13.17154765222678"
  },
  {
    "name": "ONEWEB-0440",
    "noradId": "50503",
    "line1": "1 50503U 21132AL  26176.46644704  .00000100  00000+0  22041-3 0  9991",
    "line2": "2 50503  87.9179 333.8064 0001500  92.9127 267.2177 13.18685988222666"
  },
  {
    "name": "ONEWEB-0450",
    "noradId": "50504",
    "line1": "1 50504U 21132AM  26176.45984431  .00000095  00000+0  20947-3 0  9991",
    "line2": "2 50504  87.9164 333.8118 0001603 102.1117 258.0195 13.18685401222699"
  }
]